ORBCOMM FM115 [+]       
1 41186U 15081H   24069.72719152  .00001042  00000+0  24834-3 0  9990
2 41186  46.9988  84.9795 0000341 298.2916  61.7936 14.60432549439830
ORBCOMM FM108 [+]       
1 41187U 15081J   24069.87450201  .00001285  00000+0  32448-3 0  9993
2 41187  47.0040 136.6456 0002975 319.5833  40.4831 14.56342223439158
ORBCOMM FM117 [+]       
1 41188U 15081K   24069.90902828  .00001273  00000+0  32180-3 0  9995
2 41188  46.9997 135.3986 0003236 331.8241  28.2468 14.56346519439122
ORBCOMM FM116 [+]       
1 41189U 15081L   24070.10423723  .00000950  00000+0  24983-3 0  9995
2 41189  47.0002 224.2948 0001307  97.4664 262.6369 14.56299093438036
